ORBCOMM FM01 [-]        
1 23545U 95017A   23335.15436717  .00007248  00000+0  10246-2 0  9996
2 23545  69.9694  25.4974 0001597  79.5219 280.6109 14.77498089529223
ORBCOMM FM08 [-]        
1 25112U 97084A   23334.00683129  .00002697  00000+0  86372-3 0  9995
2 25112  45.0130 191.4370 0006957 279.0194  80.9869 14.41628890359875
ORBCOMM FM10 [-]        
1 25113U 97084B   23335.04490662  .00002553  00000+0  82122-3 0  9999
2 25113  45.0139 188.2332 0004627 251.5064 108.5283 14.41568761360015
ORBCOMM FM11 [+]        
1 25114U 97084C   23335.25863265  .00002758  00000+0  88558-3 0  9992
2 25114  45.0121 187.1603 0005199 253.3699 106.6580 14.41460822360035
ORBCOMM FM12 [-]        
1 25115U 97084D   23334.73022432  .00003187  00000+0  10167-2 0  9995
2 25115  45.0135 189.3298 0004349 252.9056 107.1318 14.41439033359968
ORBCOMM FM09 [-]        
1 25116U 97084E   23335.43099465  .00002828  00000+0  90762-3 0  9995
2 25116  45.0138 186.6318 0005655 237.9761 122.0539 14.41413490360065
