<?xml version="1.0" encoding="UTF-8"?>
<ndm xmlns:xsi="http://www.w3.org/2001/XMLSchema-instance" xsi:noNamespaceSchemaLocation="https://sanaregistry.org/r/ndmxml_unqualified/ndmxml-2.0.0-master-2.0.xsd">
<omm id="CCSDS_OMM_VERS" version="2.0">
<header><CREATION_DATE/><ORIGINATOR/></header><body><segment><metadata><OBJECT_NAME>ORBCOMM FM01 [-]</OBJECT_NAME><OBJECT_ID>1995-017A</OBJECT_ID><CENTER_NAME>EARTH</CENTER_NAME><REF_FRAME>TEME</REF_FRAME><TIME_SYSTEM>UTC</TIME_SYSTEM><MEAN_ELEMENT_THEORY>SGP4</MEAN_ELEMENT_THEORY></metadata><data><meanElements><EPOCH>2023-12-01T03:42:17.323488</EPOCH><MEAN_MOTION>14.77498089</MEAN_MOTION><ECCENTRICITY>.0001597</ECCENTRICITY><INCLINATION>69.9694</INCLINATION><RA_OF_ASC_NODE>25.4974</RA_OF_ASC_NODE><ARG_OF_PERICENTER>79.5219</ARG_OF_PERICENTER><MEAN_ANOMALY>280.6109</MEAN_ANOMALY></meanElements><tleParameters><EPHEMERIS_TYPE>0</EPHEMERIS_TYPE><CLASSIFICATION_TYPE>U</CLASSIFICATION_TYPE><NORAD_CAT_ID>23545</NORAD_CAT_ID><ELEMENT_SET_NO>999</ELEMENT_SET_NO><REV_AT_EPOCH>52922</REV_AT_EPOCH><BSTAR>.10246E-2</BSTAR><MEAN_MOTION_DOT>.7248E-4</MEAN_MOTION_DOT><MEAN_MOTION_DDOT>0</MEAN_MOTION_DDOT></tleParameters></data></segment></body></omm>
<omm id="CCSDS_OMM_VERS" version="2.0">
<header><CREATION_DATE/><ORIGINATOR/></header><body><segment><metadata><OBJECT_NAME>ORBCOMM FM08 [-]</OBJECT_NAME><OBJECT_ID>1997-084A</OBJECT_ID><CENTER_NAME>EARTH</CENTER_NAME><REF_FRAME>TEME</REF_FRAME><TIME_SYSTEM>UTC</TIME_SYSTEM><MEAN_ELEMENT_THEORY>SGP4</MEAN_ELEMENT_THEORY></metadata><data><meanElements><EPOCH>2023-11-30T00:09:50.223456</EPOCH><MEAN_MOTION>14.41628890</MEAN_MOTION><ECCENTRICITY>.0006957</ECCENTRICITY><INCLINATION>45.0130</INCLINATION><RA_OF_ASC_NODE>191.4370</RA_OF_ASC_NODE><ARG_OF_PERICENTER>279.0194</ARG_OF_PERICENTER><MEAN_ANOMALY>80.9869</MEAN_ANOMALY></meanElements><tleParameters><EPHEMERIS_TYPE>0</EPHEMERIS_TYPE><CLASSIFICATION_TYPE>U</CLASSIFICATION_TYPE><NORAD_CAT_ID>25112</NORAD_CAT_ID><ELEMENT_SET_NO>999</ELEMENT_SET_NO><REV_AT_EPOCH>35987</REV_AT_EPOCH><BSTAR>.86372E-3</BSTAR><MEAN_MOTION_DOT>.2697E-4</MEAN_MOTION_DOT><MEAN_MOTION_DDOT>0</MEAN_MOTION_DDOT></tleParameters></data></segment></body></omm>
<omm id="CCSDS_OMM_VERS" version="2.0">
<header><CREATION_DATE/><ORIGINATOR/></header><body><segment><metadata><OBJECT_NAME>ORBCOMM FM10 [-]</OBJECT_NAME><OBJECT_ID>1997-084B</OBJECT_ID><CENTER_NAME>EARTH</CENTER_NAME><REF_FRAME>TEME</REF_FRAME><TIME_SYSTEM>UTC</TIME_SYSTEM><MEAN_ELEMENT_THEORY>SGP4</MEAN_ELEMENT_THEORY></metadata><data><meanElements><EPOCH>2023-12-01T01:04:39.931968</EPOCH><MEAN_MOTION>14.41568761</MEAN_MOTION><ECCENTRICITY>.0004627</ECCENTRICITY><INCLINATION>45.0139</INCLINATION><RA_OF_ASC_NODE>188.2332</RA_OF_ASC_NODE><ARG_OF_PERICENTER>251.5064</ARG_OF_PERICENTER><MEAN_ANOMALY>108.5283</MEAN_ANOMALY></meanElements><tleParameters><EPHEMERIS_TYPE>0</EPHEMERIS_TYPE><CLASSIFICATION_TYPE>U</CLASSIFICATION_TYPE><NORAD_CAT_ID>25113</NORAD_CAT_ID><ELEMENT_SET_NO>999</ELEMENT_SET_NO><REV_AT_EPOCH>36001</REV_AT_EPOCH><BSTAR>.82122E-3</BSTAR><MEAN_MOTION_DOT>.2553E-4</MEAN_MOTION_DOT><MEAN_MOTION_DDOT>0</MEAN_MOTION_DDOT></tleParameters></data></segment></body></omm>
<omm id="CCSDS_OMM_VERS" version="2.0">
<header><CREATION_DATE/><ORIGINATOR/></header><body><segment><metadata><OBJECT_NAME>ORBCOMM FM11 [+]</OBJECT_NAME><OBJECT_ID>1997-084C</OBJECT_ID><CENTER_NAME>EARTH</CENTER_NAME><REF_FRAME>TEME</REF_FRAME><TIME_SYSTEM>UTC</TIME_SYSTEM><MEAN_ELEMENT_THEORY>SGP4</MEAN_ELEMENT_THEORY></metadata><data><meanElements><EPOCH>2023-12-01T06:12:25.860960</EPOCH><MEAN_MOTION>14.41460822</MEAN_MOTION><ECCENTRICITY>.0005199</ECCENTRICITY><INCLINATION>45.0121</INCLINATION><RA_OF_ASC_NODE>187.1603</RA_OF_ASC_NODE><ARG_OF_PERICENTER>253.3699</ARG_OF_PERICENTER><MEAN_ANOMALY>106.6580</MEAN_ANOMALY></meanElements><tleParameters><EPHEMERIS_TYPE>0</EPHEMERIS_TYPE><CLASSIFICATION_TYPE>U</CLASSIFICATION_TYPE><NORAD_CAT_ID>25114</NORAD_CAT_ID><ELEMENT_SET_NO>999</ELEMENT_SET_NO><REV_AT_EPOCH>36003</REV_AT_EPOCH><BSTAR>.88558E-3</BSTAR><MEAN_MOTION_DOT>.2758E-4</MEAN_MOTION_DOT><MEAN_MOTION_DDOT>0</MEAN_MOTION_DDOT></tleParameters></data></segment></body></omm>
<omm id="CCSDS_OMM_VERS" version="2.0">
<header><CREATION_DATE/><ORIGINATOR/></header><body><segment><metadata><OBJECT_NAME>ORBCOMM FM12 [-]</OBJECT_NAME><OBJECT_ID>1997-084D</OBJECT_ID><CENTER_NAME>EARTH</CENTER_NAME><REF_FRAME>TEME</REF_FRAME><TIME_SYSTEM>UTC</TIME_SYSTEM><MEAN_ELEMENT_THEORY>SGP4</MEAN_ELEMENT_THEORY></metadata><data><meanElements><EPOCH>2023-11-30T17:31:31.381248</EPOCH><MEAN_MOTION>14.41439033</MEAN_MOTION><ECCENTRICITY>.0004349</ECCENTRICITY><INCLINATION>45.0135</INCLINATION><RA_OF_ASC_NODE>189.3298</RA_OF_ASC_NODE><ARG_OF_PERICENTER>252.9056</ARG_OF_PERICENTER><MEAN_ANOMALY>107.1318</MEAN_ANOMALY></meanElements><tleParameters><EPHEMERIS_TYPE>0</EPHEMERIS_TYPE><CLASSIFICATION_TYPE>U</CLASSIFICATION_TYPE><NORAD_CAT_ID>25115</NORAD_CAT_ID><ELEMENT_SET_NO>999</ELEMENT_SET_NO><REV_AT_EPOCH>35996</REV_AT_EPOCH><BSTAR>.10167E-2</BSTAR><MEAN_MOTION_DOT>.3187E-4</MEAN_MOTION_DOT><MEAN_MOTION_DDOT>0</MEAN_MOTION_DDOT></tleParameters></data></segment></body></omm>
<omm id="CCSDS_OMM_VERS" version="2.0">
<header><CREATION_DATE/><ORIGINATOR/></header><body><segment><metadata><OBJECT_NAME>ORBCOMM FM09 [-]</OBJECT_NAME><OBJECT_ID>1997-084E</OBJECT_ID><CENTER_NAME>EARTH</CENTER_NAME><REF_FRAME>TEME</REF_FRAME><TIME_SYSTEM>UTC</TIME_SYSTEM><MEAN_ELEMENT_THEORY>SGP4</MEAN_ELEMENT_THEORY></metadata><data><meanElements><EPOCH>2023-12-01T10:20:37.937760</EPOCH><MEAN_MOTION>14.41413490</MEAN_MOTION><ECCENTRICITY>.0005655</ECCENTRICITY><INCLINATION>45.0138</INCLINATION><RA_OF_ASC_NODE>186.6318</RA_OF_ASC_NODE><ARG_OF_PERICENTER>237.9761</ARG_OF_PERICENTER><MEAN_ANOMALY>122.0539</MEAN_ANOMALY></meanElements><tleParameters><EPHEMERIS_TYPE>0</EPHEMERIS_TYPE><CLASSIFICATION_TYPE>U</CLASSIFICATION_TYPE><NORAD_CAT_ID>25116</NORAD_CAT_ID><ELEMENT_SET_NO>999</ELEMENT_SET_NO><REV_AT_EPOCH>36006</REV_AT_EPOCH><BSTAR>.90762E-3</BSTAR><MEAN_MOTION_DOT>.2828E-4</MEAN_MOTION_DOT><MEAN_MOTION_DDOT>0</MEAN_MOTION_DDOT></tleParameters></data></segment></body></omm>

</ndm>
